satname,norad_id,inclination_deg,eccentricity,mean_motion_rev_per_day,perigee_km,apogee_km,l1,l2
STARLINK-1316,45415,53.1571,0.0006663,15.37256851,449.6728267850949,458.77763269244406,1 45415U 20019BH  26146.93267400  .00045275  00000+0  12251-2 0  9996,2 45415  53.1571 123.8538 0006663  35.7541 324.3908 15.37256851342000
STARLINK-1286,45417,53.0451,0.0001055,15.62580926,379.49194990466003,380.9179600571615,1 45417U 20019BK  26146.91160390  .00054862  00000+0  60500-3 0  9999,2 45417  53.0451 112.7719 0001055 117.2952 242.8169 15.62580926342394
STARLINK-1308,45419,53.0454,0.0008173,15.64506452,369.13950960155216,380.17762923932696,1 45419U 20019BM  26146.95199818  .00086253  00000+0  87421-3 0  9992,2 45419  53.0454 132.1381 0008173   9.9012 350.2162 15.64506452341875
STARLINK-1329,45531,53.0427,0.0004561,15.7140521,351.8091407594784,357.9509989305907,1 45531U 20025A   26146.93390324  .00065201  00000+0  50180-3 0  9999,2 45531  53.0427  56.5769 0004561  97.9660 262.1875 15.71405210337710
STARLINK-1338,45532,53.0446,0.0004426,15.66385303,366.27118792751844,372.24398161395675,1 45532U 20025B   26146.15408017  .00055594  00000+0  52721-3 0  9990,2 45532  53.0446  66.6018 0004426  67.0368 293.1114 15.66385303337505
STARLINK-1350,45535,53.0729,0.0001639,15.37938604,451.08644150807504,453.3254279220737,1 45535U 20025E   26146.94668892  .00012304  00000+0  33479-3 0  9990,2 45535  53.0729  25.0757 0001639  79.3001 280.8187 15.37938604338199
STARLINK-1362,45538,53.1573,0.0003589,15.35714032,456.34666843680225,461.2542221350286,1 45538U 20025H   26146.50897802 -.00100225  00000+0 -28707-2 0  9999,2 45538  53.1573  98.0936 0003589  84.1406 276.0006 15.35714032337111
STARLINK-1368,45540,53.1586,0.0004933,15.35998175,454.58500115511833,461.3294917386638,1 45540U 20025K   26146.26234301  .00050099  00000+0  14100-2 0  9997,2 45540  53.1586  99.6180 0004933  78.6450 281.5107 15.35998175337066
STARLINK-1371,45542,53.0445,0.0006092,15.5967951,384.46160663506635,392.7061793711018,1 45542U 20025M   26146.97184277  .00084894  00000+0  10386-2 0  9995,2 45542  53.0445  71.7220 0006092  79.5407 280.6292 15.59679510337506
STARLINK-1372,45543,53.1562,0.0004238,15.36508522,453.546941083664,459.33993146144894,1 45543U 20025N   26146.16013733  .00047826  00000+0  13252-2 0  9994,2 45543  53.1562  99.6435 0004238  66.3571 293.7877 15.36508522336154
STARLINK-1373,45544,53.0457,0.0004031,15.68227121,361.2557811397128,366.69127064568784,1 45544U 20025P   26146.95232617  .00056584  00000+0  49795-3 0  9999,2 45544  53.0457  68.0780 0004031  48.6732 311.4630 15.68227121337551
STARLINK-1327,45555,53.0423,0.0005002,15.65845661,367.43192321827155,374.18356754154956,1 45555U 20025AA  26146.97576825  .00050424  00000+0  48938-3 0  9990,2 45555  53.0423  44.9111 0005002  51.4569 308.6893 15.65845661337872
STARLINK-1356,45564,53.0464,0.0003467,15.56124381,396.5365668125669,401.235754672226,1 45564U 20025AK  26146.96826965  .00034436  00000+0  48872-3 0  9994,2 45564  53.0464  57.7712 0003467  61.3373 298.7986 15.56124381337693
STARLINK-1357,45565,53.0471,0.0007198,15.67865645,360.1560445433561,369.8634786213297,1 45565U 20025AL  26146.85541089  .00060736  00000+0  54129-3 0  9998,2 45565  53.0471  15.5740 0007198  86.7198 273.4641 15.67865645338287
STARLINK-1361,45567,53.0444,0.0001198,15.60040673,386.728954787116,388.3500108724029,1 45567U 20025AN  26146.95356360  .00082746  00000+0  99956-3 0  9999,2 45567  53.0444  56.0165 0001198  75.1261 284.9884 15.60040673337720
STARLINK-1363,45568,53.0276,0.000826,16.13672087,231.3249696626508,242.25282724689805,1 45568U 20025AP  26147.06850920  .00931716  54661-3  75298-3 0  9993,2 45568  53.0276 358.3317 0008260 263.3406  96.6688 16.13672087338528
STARLINK-1366,45569,53.0329,0.0005163,16.03819912,260.42205695442044,267.28057408902714,1 45569U 20025AQ  26146.85839155  .00441343  99687-4  67507-3 0  9991,2 45569  53.0329   1.9978 0005163 267.7268  92.3172 16.03819912338457
STARLINK-1376,45570,53.1581,0.0005469,15.36933932,451.44506736553103,458.9193519170376,1 45570U 20025AR  26146.79009239  .00041599  00000+0  11391-2 0  9992,2 45570  53.1581  73.1196 0005469  70.9683 289.1913 15.36933932337482
STARLINK-1320,45572,53.0445,0.0005195,15.8290788,318.74128853955153,325.70296167053493,1 45572U 20025AT  26146.89118509  .00132506  00000+0  60416-3 0  9998,2 45572  53.0445 315.8493 0005195 283.0762  76.9680 15.82907880339130
STARLINK-1321,45573,53.044,0.0004538,15.60964133,381.8018023304112,387.9399082598775,1 45573U 20025AU  26146.97039179  .00094348  00000+0  10973-2 0  9996,2 45573  53.0440  39.9164 0004538  89.9358 270.2175 15.60964133337641
STARLINK-1331,45578,53.0475,0.0005299,15.60827788,381.6807748233332,388.8486279464614,1 45578U 20025AZ  26146.92831756  .00090837  00000+0  10626-2 0  9991,2 45578  53.0475  47.0014 0005299  68.1630 291.9946 15.60827788337858
STARLINK-1333,45580,53.1567,0.0003094,15.33956164,461.9057681775457,466.1396966199536,1 45580U 20025BB  26146.94439418  .00043536  00000+0  13103-2 0  9992,2 45580  53.1567  73.6501 0003094  93.1422 266.9935 15.33956164337499
STARLINK-1335,45581,53.1551,0.0004427,15.35445557,456.5703230164354,462.624453043597,1 45581U 20025BC  26146.79117441  .00036416  00000+0  10481-2 0  9990,2 45581  53.1551  71.2283 0004427  87.4593 272.6917 15.35445557337507
STARLINK-1337,45582,53.0476,0.0006651,15.72396458,347.5738359122033,356.5263307704636,1 45582U 20025BD  26146.93847531  .00070503  00000+0  51937-3 0  9994,2 45582  53.0476  37.2980 0006651  74.0539 286.1211 15.72396458337976
STARLINK-1347,45586,53.0402,0.0004161,15.67013232,364.64809262881226,370.2617742358152,1 45586U 20025BH  26146.88589595  .00056708  00000+0  52420-3 0  9994,2 45586  53.0402   7.5614 0004161 101.0061 259.1422 15.67013232338388
STARLINK-1364,45589,53.0436,0.0002073,15.67867963,363.6052624058311,366.4009682976566,1 45589U 20025BL  26147.00002315 -.00026512  00000+0 -23165-3 0  9998,2 45589  53.0436  43.7605 0002073  94.3974 112.9798 15.67867963  5951
STARLINK-1365,45590,53.0462,0.0004772,15.56822633,393.6266014420589,400.09265822557154,1 45590U 20025BM  26146.81297607  .00080109  00000+0  10925-2 0  9997,2 45590  53.0462  77.8914 0004772  52.3349 307.8095 15.56822633337418
STARLINK-1443,45660,53.1333,0.0004185,15.31286689,469.1055601681137,474.839101678097,1 45660U 20035D   26146.78858517  .00039224  00000+0  12853-2 0  9999,2 45660  53.1333  62.8920 0004185  65.7258 294.4179 15.31286689330707
STARLINK-1446,45663,53.0231,0.0003812,15.46663808,423.8997594792809,429.0876099132938,1 45663U 20035G   26146.83791998  .00034269  00000+0  68108-3 0  9996,2 45663  53.0231 347.1153 0003812 135.5362 224.5950 15.46663808331756
STARLINK-1448,45665,53.0455,0.0006392,15.66645869,364.1969523448279,372.82186511374675,1 45665U 20035J   26146.91858461  .00055766  00000+0  52304-3 0  9992,2 45665  53.0455  31.4205 0006392  69.4709 290.6992 15.66645869331134
STARLINK-1451,45668,53.0535,0.0002934,15.13551843,523.353054385424,527.4040373077278,1 45668U 20035M   26146.94553376  .00023486  00000+0  13072-2 0  9997,2 45668  53.0535  71.7030 0002934  77.6540 282.4781 15.13551843330584
STARLINK-1452,45669,53.0273,0.0001059,15.56342458,397.5354552628496,398.97069468072914,1 45669U 20035N   26146.85257669  .00082532  00000+0  11456-2 0  9995,2 45669  53.0273   6.0271 0001059 249.5307 110.5590 15.56342458331497
STARLINK-1453,45670,53.0412,0.0002087,15.66950489,366.22715855581555,369.04284378910415,1 45670U 20035P   26146.95316609  .00063454  00000+0  58710-3 0  9995,2 45670  53.0412 351.5802 0002087 159.1793 200.9307 15.66950489331590
STARLINK-1454,45671,53.0442,0.0002814,15.65172279,370.84363526245306,374.64303071385893,1 45671U 20035Q   26146.84790925  .00053902  00000+0  53695-3 0  9995,2 45671  53.0442  32.8649 0002814  48.8343 311.2914 15.65172279331104
STARLINK-1456,45673,53.0442,0.0005653,15.63815991,372.8276214506741,380.4645792239162,1 45673U 20035S   26146.93496456  .00107922  00000+0  11206-2 0  9992,2 45673  53.0442  26.9240 0005653 110.2657 249.8965 15.63815991331210
STARLINK-1458,45675,53.0474,0.0004364,15.54535955,400.54237924856625,406.46139366866737,1 45675U 20035U   26146.95357409  .00082616  00000+0  12252-2 0  9994,2 45675  53.0474  40.6439 0004364  61.5803 298.5646 15.54535955330988
STARLINK-1460,45676,53.1578,0.0004044,15.3379461,461.73601498939934,467.2703423659141,1 45676U 20035V   26146.78826920  .00032212  00000+0  97879-3 0  9991,2 45676  53.1578  61.5537 0004044 105.7168 254.4281 15.33794610330681
STARLINK-1392,45677,53.1544,0.0003291,15.36973645,452.8156943187005,457.31330754661485,1 45677U 20035W   26146.96165339  .00043815  00000+0  11976-2 0  9996,2 45677  53.1544  59.6568 0003291 108.0312 252.1051 15.36973645330766
STARLINK-1394,45679,53.042,0.0006392,15.6341436,373.484493986678,382.12128754303194,1 45679U 20035Y   26146.93546846  .00099559  00000+0  10515-2 0  9995,2 45679  53.0420  17.1764 0006392 116.2776 243.8895 15.63414360331349
STARLINK-1402,45685,53.0429,0.000617,15.564525,393.7528394034689,402.1145106164322,1 45685U 20035AE  26146.88586899  .00081539  00000+0  11267-2 0  9992,2 45685  53.0429   7.5982 0006170 136.9701 223.1793 15.56452500331484
STARLINK-1404,45686,53.1577,0.0004724,15.42933128,434.23825784271503,440.6776319466517,1 45686U 20035AF  26146.93765180  .00055897  00000+0  12514-2 0  9995,2 45686  53.1577  41.9263 0004724 120.6683 239.4790 15.42933128331017
STARLINK-1413,45689,53.1586,0.0002972,15.33794448,462.4700276883277,466.5372932969258,1 45689U 20035AJ  26146.95726361  .00027536  00000+0  83893-3 0  9996,2 45689  53.1586  45.4060 0002972 118.1127 242.0176 15.33794448330884
STARLINK-1417,45693,53.0502,0.0006102,15.16110299,513.4020598244542,521.8176292735407,1 45693U 20035AN  26146.93301659  .00025818  00000+0  13348-2 0  9996,2 45693  53.0502  58.6421 0006102  98.6875 261.4810 15.16110299330757
